SatCatId,ObjectName,LaunchYear,OrbitalPeriod,LaunchMass,StatusCode,Inclination,Status,UcsData,OrbitClassEstimated,LaunchSiteCountry,Owner,UseType,Purpose,LaunchVehicleClass,TLE1,TLE2,MeanMotion,Eccentricity,OrbitClass
21006,COSMOS 2109 [GLONASS],1990,675.73,-1.0,-,64.57,Inactive,0,MEO,Kazakhstan,Russia/USSR,Unknown,Unknown,Unknown,1 21006U 90110A   24269.31100050  .00000036  00000+0  00000+0 0  9990,2 21006  64.5731  92.7459 0080679 199.8225 157.6010  2.13101714263055,2.13101714,0.0080679,MEO
21007,COSMOS 2110 [GLONASS],1990,675.74,-1.0,-,64.59,Inactive,0,MEO,Kazakhstan,Russia/USSR,Unknown,Unknown,Unknown,1 21007U 90110B   24270.28115422  .00000045  00000+0  00000+0 0  9998,2 21007  64.5902  93.1294 0044447 200.3730   5.1753  2.13101183263062,2.13101183,0.0044447,MEO
21008,COSMOS 2111 [GLONASS],1990,675.74,-1.0,-,64.57,Inactive,0,MEO,Kazakhstan,Russia/USSR,Unknown,Unknown,Unknown,1 21008U 90110C   24271.23655066  .00000052  00000+0  00000+0 0  9996,2 21008  64.5746  92.7640 0017607 235.1590 338.7281  2.13098727263012,2.13098727,0.0017607,MEO
12818,COSMOS 1305,1981,263.66,-1.0,UNK,62.82,Inactive,0,MEO,Russia,Russia/USSR,Unknown,Unknown,Unknown,1 12818U 81088A   24271.38462031  .00000234  00000+0  87077-3 0  9998,2 12818  62.8239 338.9578 4880752 253.7641  48.9886  5.46166433858469,5.46166433,0.4880752,MEO
4630,OPS 5960 (DSP 1),1970,1197.83,-1.0,-,14.14,Inactive,0,MEO,USA,USA,Unknown,Unknown,Unknown,1 04630U 70093A   24271.04979946 -.00000152  00000+0  00000+0 0  9993,2 04630  14.1430  47.7992 1374963 250.7624  93.1254  1.20217374236287,1.20217374,0.1374963,MEO
37398,MERIDIAN 4,2011,717.68,2500.0,-,62.16,Inactive,1,MEO,Russia,Russia/USSR,Military,Communications,Soyuz,1 37398U 11018A   24270.80225587  .00000764  00000+0  00000+0 0  9998,2 37398  62.1602 171.1180 7233876 258.8231  19.3984  2.00647214 98156,2.00647214,0.7233876,MEO
21014,COSMOS 2112,1990,100.42,-1.0,UNK,74.05,Inactive,0,LEO,Russia,Russia/USSR,Unknown,Unknown,Unknown,1 21014U 90111A   24271.72777976  .00000491  00000+0  18467-3 0  9990,2 21014  74.0497  12.5432 0027823 354.6228   5.4621 14.33936362767323,14.33936362,0.0027823,LEO
21016,RADUGA 26,1990,1435.55,-1.0,-,13.4,Inactive,0,GSO,Kazakhstan,Russia/USSR,Unknown,Unknown,Unknown,1 21016U 90112A   24271.75820385  .00000001  00000+0  00000+0 0  9996,2 21016  13.4025 342.3519 0005611 132.3446 226.2491  1.00310367123968,1.00310367,0.0005611,GSO
12835,COSMOS 1308,1981,104.68,-1.0,UNK,82.92,Inactive,0,LEO,Russia,Russia/USSR,Unknown,Unknown,Unknown,1 12835U 81091A   24271.81473881  .00000141  00000+0  12997-3 0  9990,2 12835  82.9152 281.3508 0028603  48.4623 124.6657 13.75559174159307,13.75559174,0.0028603,LEO
21028,COSMOS 2114,1990,114.03,-1.0,UNK,82.57,Inactive,0,LEO,Russia,Russia/USSR,Unknown,Unknown,Unknown,1 21028U 90114A   24271.79554530  .00000053  00000+0  23465-3 0  9992,2 21028  82.5721 274.4397 0003739 278.8912 254.7551 12.62777180556203,12.6277718,0.0003739,LEO
21029,COSMOS 2115,1990,113.97,-1.0,UNK,82.56,Inactive,0,LEO,Russia,Russia/USSR,Unknown,Unknown,Unknown,1 21029U 90114B   24271.49262373  .00000045  00000+0  18899-3 0  9997,2 21029  82.5637 253.7067 0003343 165.6139 316.9914 12.63509289557130,12.63509289,0.0003343,LEO
21030,COSMOS 2116,1990,113.9,-1.0,UNK,82.57,Inactive,0,LEO,Russia,Russia/USSR,Unknown,Unknown,Unknown,1 21030U 90114C   24271.46348462  .00000047  00000+0  19734-3 0  9991,2 21030  82.5706 249.1650 0005991  88.9218  29.9140 12.64298758558109,12.64298758,0.0005991,LEO
21031,COSMOS 2117,1990,113.83,-1.0,UNK,82.57,Inactive,0,LEO,Russia,Russia/USSR,Unknown,Unknown,Unknown,1 21031U 90114D   24271.71678771  .00000055  00000+0  23766-3 0  9998,2 21031  82.5726 239.8802 0009394  58.4564 115.2015 12.65003674558937,12.65003674,0.0009394,LEO
21032,COSMOS 2118,1990,113.79,-1.0,UNK,82.57,Inactive,0,LEO,Russia,Russia/USSR,Unknown,Unknown,Unknown,1 21032U 90114E   24271.84684768  .00000038  00000+0  14792-3 0  9996,2 21032  82.5668 222.0290 0011908  27.9818 332.1913 12.65532365559588,12.65532365,0.0011908,LEO
21033,COSMOS 2119,1990,113.71,-1.0,UNK,82.57,Inactive,0,LEO,Russia,Russia/USSR,Unknown,Unknown,Unknown,1 21033U 90114F   24272.13854332  .00000026  00000+0  82253-4 0  9991,2 21033  82.5742 217.2961 0013976 329.8627  41.5587 12.66346698560934,12.66346698,0.0013976,LEO
21038,RADUGA-1 2,1990,1436.39,-1.0,-,13.44,Inactive,0,GSO,Kazakhstan,Russia/USSR,Unknown,Unknown,Unknown,1 21038U 90116A   24271.82762125  .00000078  00000+0  00000+0 0  9993,2 21038  13.4418 342.4017 0007158 138.4853 234.8592  1.00251772123623,1.00251772,0.0007158,GSO
29230,KAZSAT-1,2006,1451.1,-1.0,-,10.75,Inactive,0,GSO,Kazakhstan,Kazakhstan,Unknown,Unknown,Unknown,1 29230U 06022A   24271.23674789 -.00000262  00000+0  00000+0 0  9997,2 29230  10.7470  40.7479 0006642 162.8137 204.1456  0.99234987 66414,0.99234987,0.0006642,GSO
12848,AUREOLE 3,1981,99.71,-1.0,UNK,82.47,Inactive,0,LEO,Russia,France,Unknown,Unknown,Unknown,1 12848U 81094A   24272.08743839  .00017517  00000+0  90444-3 0  9998,2 12848  82.4749 133.7979 0517088  13.4855 347.9562 14.44252636169215,14.44252636,0.0517088,LEO
12855,SBS 2,1981,1437.8,-1.0,-,11.27,Inactive,0,GSO,USA,USA,Unknown,Unknown,Unknown,1 12855U 81096A   24271.31867608  .00000003  00000+0  00000+0 0  9991,2 12855  11.2651 325.6661 0008952 216.4352 307.2024  1.00153338112326,1.00153338,0.0008952,GSO
21047,NATO 4A,1991,1465.17,-1.0,-,13.09,Inactive,0,GSO,USA,NATO,Unknown,Unknown,Unknown,1 21047U 91001A   24271.15600860 -.00000047  00000+0  00000+0 0  9997,2 21047  13.0927 358.3493 0007562 192.7913 140.9786  0.98282291121948,0.98282291,0.0007562,GSO
21055,ITALSAT 1,1991,1440.39,-1.0,UNK,14.7,Inactive,0,GSO,French Guiana,Italy,Unknown,Unknown,Unknown,1 21055U 91003A   24271.42649459  .00000033  00000+0  00000+0 0  9999,2 21055  14.7002 356.2608 0009567  53.9704 301.0013  0.99973076110802,0.99973076,0.0009567,GSO
21056,EUTELSAT 2-F2,1991,1455.44,-1.0,-,14.73,Inactive,0,GSO,French Guiana,EUTELSAT,Unknown,Unknown,Unknown,1 21056U 91003B   24271.34702073  .00000023  00000+0  00000+0 0  9992,2 21056  14.7266   6.2369 0007946 163.8324 205.2452  0.98939217110012,0.98939217,0.0007946,GSO
12879,COSMOS 1312,1981,115.91,-1.0,UNK,82.6,Inactive,0,LEO,Russia,Russia/USSR,Unknown,Unknown,Unknown,1 12879U 81098A   24271.48827354  .00000029  00000+0  13989-3 0  9993,2 12879  82.5957 251.5236 0007962  42.6055  73.6457 12.42377402491609,12.42377402,0.0007962,LEO
21087,INFORMATOR 1 & RS-14,1991,104.69,-1.0,-,82.94,Inactive,0,LEO,Russia,Russia/USSR,Unknown,Unknown,Unknown,1 21087U 91006A   24271.85286743  .00000137  00000+0  12577-3 0  9998,2 21087  82.9430 230.1821 0034920 185.0354 204.0250 13.75429548689304,13.75429548,0.003492,LEO
12897,RADUGA 10,1981,1435.89,-1.0,-,8.18,Inactive,0,GSO,Kazakhstan,Russia/USSR,Unknown,Unknown,Unknown,1 12897U 81102A   24271.61962966 -.00000199  00000+0  00000+0 0  9998,2 12897   8.1754 300.2916 0005299 219.7262 153.4925  1.00285964111051,1.00285964,0.0005299,GSO
21089,COSMOS 2123 & RS-12/13,1991,104.74,-1.0,-,82.92,Inactive,0,LEO,Russia,Russia/USSR,Unknown,Unknown,Unknown,1 21089U 91007A   24272.04508965  .00000148  00000+0  13957-3 0  9991,2 21089  82.9190  83.0392 0027887 254.4393 229.3491 13.74805371688054,13.74805371,0.0027887,LEO
21100,COSMOS 2125,1991,115.2,-1.0,UNK,74.03,Inactive,0,LEO,Russia,Russia/USSR,Unknown,Unknown,Unknown,1 21100U 91009A   24271.73381448  .00000012  00000+0  18097-3 0  9997,2 21100  74.0280  74.1802 0009621  59.5415 311.8784 12.49952032534333,12.49952032,0.0009621,LEO
21101,COSMOS 2126,1991,115.56,-1.0,UNK,74.03,Inactive,0,LEO,Russia,Russia/USSR,Unknown,Unknown,Unknown,1 21101U 91009B   24271.49283940 -.00000018  00000+0 -15058-4 0  9992,2 21101  74.0315 192.9991 0019756 280.1978  79.6843 12.46052895529522,12.46052895,0.0019756,LEO
21102,COSMOS 2127,1991,115.37,-1.0,UNK,74.03,Inactive,0,LEO,Russia,Russia/USSR,Unknown,Unknown,Unknown,1 21102U 91009C   24272.10034035  .00000008  00000+0  16164-3 0  9996,2 21102  74.0276 128.0175 0006894 205.4060 274.2497 12.48164460532362,12.4816446,0.0006894,LEO
21103,COSMOS 2128,1991,115.02,-1.0,UNK,74.03,Inactive,0,LEO,Russia,Russia/USSR,Unknown,Unknown,Unknown,1 21103U 91009D   24271.41238416 -.00000013  00000+0  16330-4 0  9992,2 21103  74.0344  15.2245 0015392 303.3353  56.6225 12.51909865536679,12.51909865,0.0015392,LEO
21104,COSMOS 2129,1991,114.86,-1.0,UNK,74.03,Inactive,0,LEO,Russia,Russia/USSR,Unknown,Unknown,Unknown,1 21104U 91009E   24271.85648957  .00000011  00000+0  16863-3 0  9993,2 21104  74.0308 318.8005 0025544 240.8525 293.4982 12.53728014538896,12.53728014,0.0025544,LEO
21105,COSMOS 2130,1991,114.54,-1.0,UNK,74.03,Inactive,0,LEO,Russia,Russia/USSR,Unknown,Unknown,Unknown,1 21105U 91009F   24271.34174300 -.00000011  00000+0  31595-4 0  9995,2 21105  74.0299 213.9707 0042896 119.5914   1.6298 12.57164809543056,12.57164809,0.0042896,LEO
21106,COSMOS 2131,1991,114.38,-1.0,UNK,74.03,Inactive,0,LEO,Russia,Russia/USSR,Unknown,Unknown,Unknown,1 21106U 91009G   24271.47807380 -.00000012  00000+0  25421-4 0  9993,2 21106  74.0305 158.9613 0051476  46.3039 126.4044 12.58947276545266,12.58947276,0.0051476,LEO
21107,COSMOS 2132,1991,114.7,-1.0,UNK,74.03,Inactive,0,LEO,Russia,Russia/USSR,Unknown,Unknown,Unknown,1 21107U 91009H   24271.73011991  .00000016  00000+0  19507-3 0  9998,2 21107  74.0267 265.2547 0033921 175.9833 357.3282 12.55486418541042,12.55486418,0.0033921,LEO
21111,COSMOS 2133,1991,1436.27,-1.0,-,13.67,Inactive,0,GSO,Kazakhstan,Russia/USSR,Unknown,Unknown,Unknown,1 21111U 91010A   24271.74077192 -.00000114  00000+0  00000+0 0  9995,2 21111  13.6667 347.1872 0008903 181.8506 179.5916  1.00259895123157,1.00259895,0.0008903,GSO
21118,MOLNIYA 1-80,1991,701.63,-1.0,UNK,64.98,Inactive,0,MEO,Russia,Russia/USSR,Unknown,Unknown,Unknown,1 21118U 91012A   24270.82757490  .00000059  00000+0  00000+0 0  9995,2 21118  64.9836 249.2397 6446769 266.2004  23.3698  2.05237317248060,2.05237317,0.6446769,MEO
